STARLINK-3723           
1 52138U 22029BC  26068.26297391  .00001721  00000+0  12626-3 0  9995
2 52138  53.2178  71.0337 0001296  88.1691 271.9450 15.08827538220873
LEMUR-2-KREMPEL-BRO2    
1 63353U 25061C   26068.86379735  .00007837  00000+0  44347-3 0  9993
2 63353  97.5616  45.5365 0017925 236.8576 123.0936 15.13192951 52586
